{
  "type": "FeatureCollection",
  "features": [
    {
      "type": "Feature",
      "properties": {
        "cellId": "s1-recoveryComparison-5-43",
        "window": "recoveryComparison",
        "observedAt": "2026-05-15T15:47:47.498591Z",
        "sceneId": "S1A_IW_GRDH_1SDV_20260515T154747_20260515T154812_064529_0820BC_1569_COG",
        "floodProbability": 0.508,
        "confidence": 0.547,
        "classification": "possible_flood",
        "vvMean": 146.78,
        "vhMean": 83.56,
        "method": "sentinel1-calibrated-low-backscatter-v1",
        "georeference": "copernicus-stac-bbox-linearized"
      },
      "geometry": {
        "type": "Polygon",
        "coordinates": [
          [
            [
              37.2951875,
              -2.6322857142857146
            ],
            [
              37.296749999999996,
              -2.6322857142857146
            ],
            [
              37.296749999999996,
              -2.6307380952380957
            ],
            [
              37.2951875,
              -2.6307380952380957
            ],
            [
              37.2951875,
              -2.6322857142857146
            ]
          ]
        ]
      }
    },
    {
      "type": "Feature",
      "properties": {
        "cellId": "s1-recoveryComparison-5-44",
        "window": "recoveryComparison",
        "observedAt": "2026-05-15T15:47:47.498591Z",
        "sceneId": "S1A_IW_GRDH_1SDV_20260515T154747_20260515T154812_064529_0820BC_1569_COG",
        "floodProbability": 0.516,
        "confidence": 0.553,
        "classification": "possible_flood",
        "vvMean": 140.67,
        "vhMean": 84.11,
        "method": "sentinel1-calibrated-low-backscatter-v1",
        "georeference": "copernicus-stac-bbox-linearized"
      },
      "geometry": {
        "type": "Polygon",
        "coordinates": [
          [
            [
              37.296749999999996,
              -2.6322857142857146
            ],
            [
              37.298312499999994,
              -2.6322857142857146
            ],
            [
              37.298312499999994,
              -2.6307380952380957
            ],
            [
              37.296749999999996,
              -2.6307380952380957
            ],
            [
              37.296749999999996,
              -2.6322857142857146
            ]
          ]
        ]
      }
    },
    {
      "type": "Feature",
      "properties": {
        "cellId": "s1-recoveryComparison-10-10",
        "window": "recoveryComparison",
        "observedAt": "2026-05-15T15:47:47.498591Z",
        "sceneId": "S1A_IW_GRDH_1SDV_20260515T154747_20260515T154812_064529_0820BC_1569_COG",
        "floodProbability": 0.486,
        "confidence": 0.552,
        "classification": "possible_flood",
        "vvMean": 145.33,
        "vhMean": 85.78,
        "method": "sentinel1-calibrated-low-backscatter-v1",
        "georeference": "copernicus-stac-bbox-linearized"
      },
      "geometry": {
        "type": "Polygon",
        "coordinates": [
          [
            [
              37.243625,
              -2.6400238095238096
            ],
            [
              37.2451875,
              -2.6400238095238096
            ],
            [
              37.2451875,
              -2.6384761904761906
            ],
            [
              37.243625,
              -2.6384761904761906
            ],
            [
              37.243625,
              -2.6400238095238096
            ]
          ]
        ]
      }
    },
    {
      "type": "Feature",
      "properties": {
        "cellId": "s1-recoveryComparison-11-10",
        "window": "recoveryComparison",
        "observedAt": "2026-05-15T15:47:47.498591Z",
        "sceneId": "S1A_IW_GRDH_1SDV_20260515T154747_20260515T154812_064529_0820BC_1569_COG",
        "floodProbability": 0.585,
        "confidence": 0.61,
        "classification": "possible_flood",
        "vvMean": 136.33,
        "vhMean": 69.78,
        "method": "sentinel1-calibrated-low-backscatter-v1",
        "georeference": "copernicus-stac-bbox-linearized"
      },
      "geometry": {
        "type": "Polygon",
        "coordinates": [
          [
            [
              37.243625,
              -2.641571428571429
            ],
            [
              37.2451875,
              -2.641571428571429
            ],
            [
              37.2451875,
              -2.6400238095238096
            ],
            [
              37.243625,
              -2.6400238095238096
            ],
            [
              37.243625,
              -2.641571428571429
            ]
          ]
        ]
      }
    },
    {
      "type": "Feature",
      "properties": {
        "cellId": "s1-recoveryComparison-11-11",
        "window": "recoveryComparison",
        "observedAt": "2026-05-15T15:47:47.498591Z",
        "sceneId": "S1A_IW_GRDH_1SDV_20260515T154747_20260515T154812_064529_0820BC_1569_COG",
        "floodProbability": 0.491,
        "confidence": 0.548,
        "classification": "possible_flood",
        "vvMean": 134.56,
        "vhMean": 92.33,
        "method": "sentinel1-calibrated-low-backscatter-v1",
        "georeference": "copernicus-stac-bbox-linearized"
      },
      "geometry": {
        "type": "Polygon",
        "coordinates": [
          [
            [
              37.2451875,
              -2.641571428571429
            ],
            [
              37.24675,
              -2.641571428571429
            ],
            [
              37.24675,
              -2.6400238095238096
            ],
            [
              37.2451875,
              -2.6400238095238096
            ],
            [
              37.2451875,
              -2.641571428571429
            ]
          ]
        ]
      }
    },
    {
      "type": "Feature",
      "properties": {
        "cellId": "s1-recoveryComparison-12-10",
        "window": "recoveryComparison",
        "observedAt": "2026-05-15T15:47:47.498591Z",
        "sceneId": "S1A_IW_GRDH_1SDV_20260515T154747_20260515T154812_064529_0820BC_1569_COG",
        "floodProbability": 0.479,
        "confidence": 0.557,
        "classification": "possible_flood",
        "vvMean": 138.89,
        "vhMean": 91.67,
        "method": "sentinel1-calibrated-low-backscatter-v1",
        "georeference": "copernicus-stac-bbox-linearized"
      },
      "geometry": {
        "type": "Polygon",
        "coordinates": [
          [
            [
              37.243625,
              -2.643119047619048
            ],
            [
              37.2451875,
              -2.643119047619048
            ],
            [
              37.2451875,
              -2.641571428571429
            ],
            [
              37.243625,
              -2.641571428571429
            ],
            [
              37.243625,
              -2.643119047619048
            ]
          ]
        ]
      }
    },
    {
      "type": "Feature",
      "properties": {
        "cellId": "s1-recoveryComparison-12-12",
        "window": "recoveryComparison",
        "observedAt": "2026-05-15T15:47:47.498591Z",
        "sceneId": "S1A_IW_GRDH_1SDV_20260515T154747_20260515T154812_064529_0820BC_1569_COG",
        "floodProbability": 0.498,
        "confidence": 0.541,
        "classification": "possible_flood",
        "vvMean": 136.33,
        "vhMean": 94.11,
        "method": "sentinel1-calibrated-low-backscatter-v1",
        "georeference": "copernicus-stac-bbox-linearized"
      },
      "geometry": {
        "type": "Polygon",
        "coordinates": [
          [
            [
              37.24675,
              -2.643119047619048
            ],
            [
              37.2483125,
              -2.643119047619048
            ],
            [
              37.2483125,
              -2.641571428571429
            ],
            [
              37.24675,
              -2.641571428571429
            ],
            [
              37.24675,
              -2.643119047619048
            ]
          ]
        ]
      }
    },
    {
      "type": "Feature",
      "properties": {
        "cellId": "s1-recoveryComparison-13-21",
        "window": "recoveryComparison",
        "observedAt": "2026-05-15T15:47:47.498591Z",
        "sceneId": "S1A_IW_GRDH_1SDV_20260515T154747_20260515T154812_064529_0820BC_1569_COG",
        "floodProbability": 0.452,
        "confidence": 0.579,
        "classification": "possible_flood",
        "vvMean": 144.67,
        "vhMean": 77.89,
        "method": "sentinel1-calibrated-low-backscatter-v1",
        "georeference": "copernicus-stac-bbox-linearized"
      },
      "geometry": {
        "type": "Polygon",
        "coordinates": [
          [
            [
              37.2608125,
              -2.6446666666666667
            ],
            [
              37.262375,
              -2.6446666666666667
            ],
            [
              37.262375,
              -2.643119047619048
            ],
            [
              37.2608125,
              -2.643119047619048
            ],
            [
              37.2608125,
              -2.6446666666666667
            ]
          ]
        ]
      }
    },
    {
      "type": "Feature",
      "properties": {
        "cellId": "s1-recoveryComparison-14-11",
        "window": "recoveryComparison",
        "observedAt": "2026-05-15T15:47:47.498591Z",
        "sceneId": "S1A_IW_GRDH_1SDV_20260515T154747_20260515T154812_064529_0820BC_1569_COG",
        "floodProbability": 0.605,
        "confidence": 0.626,
        "classification": "possible_flood",
        "vvMean": 134.44,
        "vhMean": 70.44,
        "method": "sentinel1-calibrated-low-backscatter-v1",
        "georeference": "copernicus-stac-bbox-linearized"
      },
      "geometry": {
        "type": "Polygon",
        "coordinates": [
          [
            [
              37.2451875,
              -2.646214285714286
            ],
            [
              37.24675,
              -2.646214285714286
            ],
            [
              37.24675,
              -2.6446666666666667
            ],
            [
              37.2451875,
              -2.6446666666666667
            ],
            [
              37.2451875,
              -2.646214285714286
            ]
          ]
        ]
      }
    },
    {
      "type": "Feature",
      "properties": {
        "cellId": "s1-recoveryComparison-15-11",
        "window": "recoveryComparison",
        "observedAt": "2026-05-15T15:47:47.498591Z",
        "sceneId": "S1A_IW_GRDH_1SDV_20260515T154747_20260515T154812_064529_0820BC_1569_COG",
        "floodProbability": 0.576,
        "confidence": 0.602,
        "classification": "possible_flood",
        "vvMean": 121.33,
        "vhMean": 83.22,
        "method": "sentinel1-calibrated-low-backscatter-v1",
        "georeference": "copernicus-stac-bbox-linearized"
      },
      "geometry": {
        "type": "Polygon",
        "coordinates": [
          [
            [
              37.2451875,
              -2.647761904761905
            ],
            [
              37.24675,
              -2.647761904761905
            ],
            [
              37.24675,
              -2.646214285714286
            ],
            [
              37.2451875,
              -2.646214285714286
            ],
            [
              37.2451875,
              -2.647761904761905
            ]
          ]
        ]
      }
    },
    {
      "type": "Feature",
      "properties": {
        "cellId": "s1-recoveryComparison-15-36",
        "window": "recoveryComparison",
        "observedAt": "2026-05-15T15:47:47.498591Z",
        "sceneId": "S1A_IW_GRDH_1SDV_20260515T154747_20260515T154812_064529_0820BC_1569_COG",
        "floodProbability": 0.484,
        "confidence": 0.553,
        "classification": "possible_flood",
        "vvMean": 161.33,
        "vhMean": 78.67,
        "method": "sentinel1-calibrated-low-backscatter-v1",
        "georeference": "copernicus-stac-bbox-linearized"
      },
      "geometry": {
        "type": "Polygon",
        "coordinates": [
          [
            [
              37.28425,
              -2.647761904761905
            ],
            [
              37.2858125,
              -2.647761904761905
            ],
            [
              37.2858125,
              -2.646214285714286
            ],
            [
              37.28425,
              -2.646214285714286
            ],
            [
              37.28425,
              -2.647761904761905
            ]
          ]
        ]
      }
    },
    {
      "type": "Feature",
      "properties": {
        "cellId": "s1-recoveryComparison-15-40",
        "window": "recoveryComparison",
        "observedAt": "2026-05-15T15:47:47.498591Z",
        "sceneId": "S1A_IW_GRDH_1SDV_20260515T154747_20260515T154812_064529_0820BC_1569_COG",
        "floodProbability": 0.451,
        "confidence": 0.581,
        "classification": "possible_flood",
        "vvMean": 159.56,
        "vhMean": 83.78,
        "method": "sentinel1-calibrated-low-backscatter-v1",
        "georeference": "copernicus-stac-bbox-linearized"
      },
      "geometry": {
        "type": "Polygon",
        "coordinates": [
          [
            [
              37.290499999999994,
              -2.647761904761905
            ],
            [
              37.2920625,
              -2.647761904761905
            ],
            [
              37.2920625,
              -2.646214285714286
            ],
            [
              37.290499999999994,
              -2.646214285714286
            ],
            [
              37.290499999999994,
              -2.647761904761905
            ]
          ]
        ]
      }
    },
    {
      "type": "Feature",
      "properties": {
        "cellId": "s1-recoveryComparison-16-12",
        "window": "recoveryComparison",
        "observedAt": "2026-05-15T15:47:47.498591Z",
        "sceneId": "S1A_IW_GRDH_1SDV_20260515T154747_20260515T154812_064529_0820BC_1569_COG",
        "floodProbability": 0.528,
        "confidence": 0.563,
        "classification": "possible_flood",
        "vvMean": 132.44,
        "vhMean": 78.89,
        "method": "sentinel1-calibrated-low-backscatter-v1",
        "georeference": "copernicus-stac-bbox-linearized"
      },
      "geometry": {
        "type": "Polygon",
        "coordinates": [
          [
            [
              37.24675,
              -2.649309523809524
            ],
            [
              37.2483125,
              -2.649309523809524
            ],
            [
              37.2483125,
              -2.647761904761905
            ],
            [
              37.24675,
              -2.647761904761905
            ],
            [
              37.24675,
              -2.649309523809524
            ]
          ]
        ]
      }
    },
    {
      "type": "Feature",
      "properties": {
        "cellId": "s1-recoveryComparison-16-14",
        "window": "recoveryComparison",
        "observedAt": "2026-05-15T15:47:47.498591Z",
        "sceneId": "S1A_IW_GRDH_1SDV_20260515T154747_20260515T154812_064529_0820BC_1569_COG",
        "floodProbability": 0.471,
        "confidence": 0.563,
        "classification": "possible_flood",
        "vvMean": 137,
        "vhMean": 95.78,
        "method": "sentinel1-calibrated-low-backscatter-v1",
        "georeference": "copernicus-stac-bbox-linearized"
      },
      "geometry": {
        "type": "Polygon",
        "coordinates": [
          [
            [
              37.249875,
              -2.649309523809524
            ],
            [
              37.2514375,
              -2.649309523809524
            ],
            [
              37.2514375,
              -2.647761904761905
            ],
            [
              37.249875,
              -2.647761904761905
            ],
            [
              37.249875,
              -2.649309523809524
            ]
          ]
        ]
      }
    },
    {
      "type": "Feature",
      "properties": {
        "cellId": "s1-recoveryComparison-17-13",
        "window": "recoveryComparison",
        "observedAt": "2026-05-15T15:47:47.498591Z",
        "sceneId": "S1A_IW_GRDH_1SDV_20260515T154747_20260515T154812_064529_0820BC_1569_COG",
        "floodProbability": 0.47,
        "confidence": 0.565,
        "classification": "possible_flood",
        "vvMean": 151,
        "vhMean": 82.56,
        "method": "sentinel1-calibrated-low-backscatter-v1",
        "georeference": "copernicus-stac-bbox-linearized"
      },
      "geometry": {
        "type": "Polygon",
        "coordinates": [
          [
            [
              37.2483125,
              -2.6508571428571432
            ],
            [
              37.249875,
              -2.6508571428571432
            ],
            [
              37.249875,
              -2.649309523809524
            ],
            [
              37.2483125,
              -2.649309523809524
            ],
            [
              37.2483125,
              -2.6508571428571432
            ]
          ]
        ]
      }
    },
    {
      "type": "Feature",
      "properties": {
        "cellId": "s1-recoveryComparison-17-14",
        "window": "recoveryComparison",
        "observedAt": "2026-05-15T15:47:47.498591Z",
        "sceneId": "S1A_IW_GRDH_1SDV_20260515T154747_20260515T154812_064529_0820BC_1569_COG",
        "floodProbability": 0.495,
        "confidence": 0.545,
        "classification": "possible_flood",
        "vvMean": 134.89,
        "vhMean": 84.22,
        "method": "sentinel1-calibrated-low-backscatter-v1",
        "georeference": "copernicus-stac-bbox-linearized"
      },
      "geometry": {
        "type": "Polygon",
        "coordinates": [
          [
            [
              37.249875,
              -2.6508571428571432
            ],
            [
              37.2514375,
              -2.6508571428571432
            ],
            [
              37.2514375,
              -2.649309523809524
            ],
            [
              37.249875,
              -2.649309523809524
            ],
            [
              37.249875,
              -2.6508571428571432
            ]
          ]
        ]
      }
    },
    {
      "type": "Feature",
      "properties": {
        "cellId": "s1-recoveryComparison-21-25",
        "window": "recoveryComparison",
        "observedAt": "2026-05-15T15:47:47.498591Z",
        "sceneId": "S1A_IW_GRDH_1SDV_20260515T154747_20260515T154812_064529_0820BC_1569_COG",
        "floodProbability": 0.461,
        "confidence": 0.572,
        "classification": "possible_flood",
        "vvMean": 150.11,
        "vhMean": 68.11,
        "method": "sentinel1-calibrated-low-backscatter-v1",
        "georeference": "copernicus-stac-bbox-linearized"
      },
      "geometry": {
        "type": "Polygon",
        "coordinates": [
          [
            [
              37.2670625,
              -2.6570476190476193
            ],
            [
              37.268625,
              -2.6570476190476193
            ],
            [
              37.268625,
              -2.6555
            ],
            [
              37.2670625,
              -2.6555
            ],
            [
              37.2670625,
              -2.6570476190476193
            ]
          ]
        ]
      }
    },
    {
      "type": "Feature",
      "properties": {
        "cellId": "s1-recoveryComparison-23-24",
        "window": "recoveryComparison",
        "observedAt": "2026-05-15T15:47:47.498591Z",
        "sceneId": "S1A_IW_GRDH_1SDV_20260515T154747_20260515T154812_064529_0820BC_1569_COG",
        "floodProbability": 0.452,
        "confidence": 0.58,
        "classification": "possible_flood",
        "vvMean": 146.67,
        "vhMean": 84.11,
        "method": "sentinel1-calibrated-low-backscatter-v1",
        "georeference": "copernicus-stac-bbox-linearized"
      },
      "geometry": {
        "type": "Polygon",
        "coordinates": [
          [
            [
              37.2655,
              -2.660142857142857
            ],
            [
              37.2670625,
              -2.660142857142857
            ],
            [
              37.2670625,
              -2.6585952380952382
            ],
            [
              37.2655,
              -2.6585952380952382
            ],
            [
              37.2655,
              -2.660142857142857
            ]
          ]
        ]
      }
    },
    {
      "type": "Feature",
      "properties": {
        "cellId": "s1-recoveryComparison-23-25",
        "window": "recoveryComparison",
        "observedAt": "2026-05-15T15:47:47.498591Z",
        "sceneId": "S1A_IW_GRDH_1SDV_20260515T154747_20260515T154812_064529_0820BC_1569_COG",
        "floodProbability": 0.499,
        "confidence": 0.541,
        "classification": "possible_flood",
        "vvMean": 153.33,
        "vhMean": 69.56,
        "method": "sentinel1-calibrated-low-backscatter-v1",
        "georeference": "copernicus-stac-bbox-linearized"
      },
      "geometry": {
        "type": "Polygon",
        "coordinates": [
          [
            [
              37.2670625,
              -2.660142857142857
            ],
            [
              37.268625,
              -2.660142857142857
            ],
            [
              37.268625,
              -2.6585952380952382
            ],
            [
              37.2670625,
              -2.6585952380952382
            ],
            [
              37.2670625,
              -2.660142857142857
            ]
          ]
        ]
      }
    },
    {
      "type": "Feature",
      "properties": {
        "cellId": "s1-recoveryComparison-24-25",
        "window": "recoveryComparison",
        "observedAt": "2026-05-15T15:47:47.498591Z",
        "sceneId": "S1A_IW_GRDH_1SDV_20260515T154747_20260515T154812_064529_0820BC_1569_COG",
        "floodProbability": 0.455,
        "confidence": 0.577,
        "classification": "possible_flood",
        "vvMean": 141.22,
        "vhMean": 79.33,
        "method": "sentinel1-calibrated-low-backscatter-v1",
        "georeference": "copernicus-stac-bbox-linearized"
      },
      "geometry": {
        "type": "Polygon",
        "coordinates": [
          [
            [
              37.2670625,
              -2.6616904761904765
            ],
            [
              37.268625,
              -2.6616904761904765
            ],
            [
              37.268625,
              -2.660142857142857
            ],
            [
              37.2670625,
              -2.660142857142857
            ],
            [
              37.2670625,
              -2.6616904761904765
            ]
          ]
        ]
      }
    },
    {
      "type": "Feature",
      "properties": {
        "cellId": "s1-recoveryComparison-26-23",
        "window": "recoveryComparison",
        "observedAt": "2026-05-15T15:47:47.498591Z",
        "sceneId": "S1A_IW_GRDH_1SDV_20260515T154747_20260515T154812_064529_0820BC_1569_COG",
        "floodProbability": 0.533,
        "confidence": 0.567,
        "classification": "possible_flood",
        "vvMean": 133.33,
        "vhMean": 91.67,
        "method": "sentinel1-calibrated-low-backscatter-v1",
        "georeference": "copernicus-stac-bbox-linearized"
      },
      "geometry": {
        "type": "Polygon",
        "coordinates": [
          [
            [
              37.2639375,
              -2.6647857142857143
            ],
            [
              37.2655,
              -2.6647857142857143
            ],
            [
              37.2655,
              -2.6632380952380954
            ],
            [
              37.2639375,
              -2.6632380952380954
            ],
            [
              37.2639375,
              -2.6647857142857143
            ]
          ]
        ]
      }
    },
    {
      "type": "Feature",
      "properties": {
        "cellId": "s1-recoveryComparison-27-22",
        "window": "recoveryComparison",
        "observedAt": "2026-05-15T15:47:47.498591Z",
        "sceneId": "S1A_IW_GRDH_1SDV_20260515T154747_20260515T154812_064529_0820BC_1569_COG",
        "floodProbability": 0.457,
        "confidence": 0.575,
        "classification": "possible_flood",
        "vvMean": 151.56,
        "vhMean": 92.78,
        "method": "sentinel1-calibrated-low-backscatter-v1",
        "georeference": "copernicus-stac-bbox-linearized"
      },
      "geometry": {
        "type": "Polygon",
        "coordinates": [
          [
            [
              37.262375,
              -2.6663333333333337
            ],
            [
              37.2639375,
              -2.6663333333333337
            ],
            [
              37.2639375,
              -2.6647857142857143
            ],
            [
              37.262375,
              -2.6647857142857143
            ],
            [
              37.262375,
              -2.6663333333333337
            ]
          ]
        ]
      }
    },
    {
      "type": "Feature",
      "properties": {
        "cellId": "s1-recoveryComparison-27-23",
        "window": "recoveryComparison",
        "observedAt": "2026-05-15T15:47:47.498591Z",
        "sceneId": "S1A_IW_GRDH_1SDV_20260515T154747_20260515T154812_064529_0820BC_1569_COG",
        "floodProbability": 0.578,
        "confidence": 0.604,
        "classification": "possible_flood",
        "vvMean": 126.11,
        "vhMean": 82.56,
        "method": "sentinel1-calibrated-low-backscatter-v1",
        "georeference": "copernicus-stac-bbox-linearized"
      },
      "geometry": {
        "type": "Polygon",
        "coordinates": [
          [
            [
              37.2639375,
              -2.6663333333333337
            ],
            [
              37.2655,
              -2.6663333333333337
            ],
            [
              37.2655,
              -2.6647857142857143
            ],
            [
              37.2639375,
              -2.6647857142857143
            ],
            [
              37.2639375,
              -2.6663333333333337
            ]
          ]
        ]
      }
    },
    {
      "type": "Feature",
      "properties": {
        "cellId": "s1-recoveryComparison-30-20",
        "window": "recoveryComparison",
        "observedAt": "2026-05-15T15:47:47.498591Z",
        "sceneId": "S1A_IW_GRDH_1SDV_20260515T154747_20260515T154812_064529_0820BC_1569_COG",
        "floodProbability": 0.468,
        "confidence": 0.567,
        "classification": "possible_flood",
        "vvMean": 148.78,
        "vhMean": 85.78,
        "method": "sentinel1-calibrated-low-backscatter-v1",
        "georeference": "copernicus-stac-bbox-linearized"
      },
      "geometry": {
        "type": "Polygon",
        "coordinates": [
          [
            [
              37.25925,
              -2.670976190476191
            ],
            [
              37.2608125,
              -2.670976190476191
            ],
            [
              37.2608125,
              -2.6694285714285715
            ],
            [
              37.25925,
              -2.6694285714285715
            ],
            [
              37.25925,
              -2.670976190476191
            ]
          ]
        ]
      }
    },
    {
      "type": "Feature",
      "properties": {
        "cellId": "s1-recoveryComparison-30-21",
        "window": "recoveryComparison",
        "observedAt": "2026-05-15T15:47:47.498591Z",
        "sceneId": "S1A_IW_GRDH_1SDV_20260515T154747_20260515T154812_064529_0820BC_1569_COG",
        "floodProbability": 0.689,
        "confidence": 0.695,
        "classification": "probable_flood",
        "vvMean": 118.33,
        "vhMean": 64.67,
        "method": "sentinel1-calibrated-low-backscatter-v1",
        "georeference": "copernicus-stac-bbox-linearized"
      },
      "geometry": {
        "type": "Polygon",
        "coordinates": [
          [
            [
              37.2608125,
              -2.670976190476191
            ],
            [
              37.262375,
              -2.670976190476191
            ],
            [
              37.262375,
              -2.6694285714285715
            ],
            [
              37.2608125,
              -2.6694285714285715
            ],
            [
              37.2608125,
              -2.670976190476191
            ]
          ]
        ]
      }
    },
    {
      "type": "Feature",
      "properties": {
        "cellId": "s1-recoveryComparison-30-22",
        "window": "recoveryComparison",
        "observedAt": "2026-05-15T15:47:47.498591Z",
        "sceneId": "S1A_IW_GRDH_1SDV_20260515T154747_20260515T154812_064529_0820BC_1569_COG",
        "floodProbability": 0.48,
        "confidence": 0.556,
        "classification": "possible_flood",
        "vvMean": 151.78,
        "vhMean": 84.44,
        "method": "sentinel1-calibrated-low-backscatter-v1",
        "georeference": "copernicus-stac-bbox-linearized"
      },
      "geometry": {
        "type": "Polygon",
        "coordinates": [
          [
            [
              37.262375,
              -2.670976190476191
            ],
            [
              37.2639375,
              -2.670976190476191
            ],
            [
              37.2639375,
              -2.6694285714285715
            ],
            [
              37.262375,
              -2.6694285714285715
            ],
            [
              37.262375,
              -2.670976190476191
            ]
          ]
        ]
      }
    },
    {
      "type": "Feature",
      "properties": {
        "cellId": "s1-recoveryComparison-30-23",
        "window": "recoveryComparison",
        "observedAt": "2026-05-15T15:47:47.498591Z",
        "sceneId": "S1A_IW_GRDH_1SDV_20260515T154747_20260515T154812_064529_0820BC_1569_COG",
        "floodProbability": 0.453,
        "confidence": 0.578,
        "classification": "possible_flood",
        "vvMean": 142,
        "vhMean": 84.22,
        "method": "sentinel1-calibrated-low-backscatter-v1",
        "georeference": "copernicus-stac-bbox-linearized"
      },
      "geometry": {
        "type": "Polygon",
        "coordinates": [
          [
            [
              37.2639375,
              -2.670976190476191
            ],
            [
              37.2655,
              -2.670976190476191
            ],
            [
              37.2655,
              -2.6694285714285715
            ],
            [
              37.2639375,
              -2.6694285714285715
            ],
            [
              37.2639375,
              -2.670976190476191
            ]
          ]
        ]
      }
    },
    {
      "type": "Feature",
      "properties": {
        "cellId": "s1-recoveryComparison-30-34",
        "window": "recoveryComparison",
        "observedAt": "2026-05-15T15:47:47.498591Z",
        "sceneId": "S1A_IW_GRDH_1SDV_20260515T154747_20260515T154812_064529_0820BC_1569_COG",
        "floodProbability": 0.457,
        "confidence": 0.575,
        "classification": "possible_flood",
        "vvMean": 151.44,
        "vhMean": 87.22,
        "method": "sentinel1-calibrated-low-backscatter-v1",
        "georeference": "copernicus-stac-bbox-linearized"
      },
      "geometry": {
        "type": "Polygon",
        "coordinates": [
          [
            [
              37.281124999999996,
              -2.670976190476191
            ],
            [
              37.2826875,
              -2.670976190476191
            ],
            [
              37.2826875,
              -2.6694285714285715
            ],
            [
              37.281124999999996,
              -2.6694285714285715
            ],
            [
              37.281124999999996,
              -2.670976190476191
            ]
          ]
        ]
      }
    },
    {
      "type": "Feature",
      "properties": {
        "cellId": "s1-recoveryComparison-31-3",
        "window": "recoveryComparison",
        "observedAt": "2026-05-15T15:47:47.498591Z",
        "sceneId": "S1A_IW_GRDH_1SDV_20260515T154747_20260515T154812_064529_0820BC_1569_COG",
        "floodProbability": 0.484,
        "confidence": 0.553,
        "classification": "possible_flood",
        "vvMean": 152.67,
        "vhMean": 83.44,
        "method": "sentinel1-calibrated-low-backscatter-v1",
        "georeference": "copernicus-stac-bbox-linearized"
      },
      "geometry": {
        "type": "Polygon",
        "coordinates": [
          [
            [
              37.232687500000004,
              -2.6725238095238097
            ],
            [
              37.23425,
              -2.6725238095238097
            ],
            [
              37.23425,
              -2.670976190476191
            ],
            [
              37.232687500000004,
              -2.670976190476191
            ],
            [
              37.232687500000004,
              -2.6725238095238097
            ]
          ]
        ]
      }
    },
    {
      "type": "Feature",
      "properties": {
        "cellId": "s1-recoveryComparison-31-20",
        "window": "recoveryComparison",
        "observedAt": "2026-05-15T15:47:47.498591Z",
        "sceneId": "S1A_IW_GRDH_1SDV_20260515T154747_20260515T154812_064529_0820BC_1569_COG",
        "floodProbability": 0.712,
        "confidence": 0.714,
        "classification": "probable_flood",
        "vvMean": 107,
        "vhMean": 75.44,
        "method": "sentinel1-calibrated-low-backscatter-v1",
        "georeference": "copernicus-stac-bbox-linearized"
      },
      "geometry": {
        "type": "Polygon",
        "coordinates": [
          [
            [
              37.25925,
              -2.6725238095238097
            ],
            [
              37.2608125,
              -2.6725238095238097
            ],
            [
              37.2608125,
              -2.670976190476191
            ],
            [
              37.25925,
              -2.670976190476191
            ],
            [
              37.25925,
              -2.6725238095238097
            ]
          ]
        ]
      }
    },
    {
      "type": "Feature",
      "properties": {
        "cellId": "s1-recoveryComparison-31-21",
        "window": "recoveryComparison",
        "observedAt": "2026-05-15T15:47:47.498591Z",
        "sceneId": "S1A_IW_GRDH_1SDV_20260515T154747_20260515T154812_064529_0820BC_1569_COG",
        "floodProbability": 0.82,
        "confidence": 0.802,
        "classification": "probable_flood",
        "vvMean": 102.56,
        "vhMean": 59.33,
        "method": "sentinel1-calibrated-low-backscatter-v1",
        "georeference": "copernicus-stac-bbox-linearized"
      },
      "geometry": {
        "type": "Polygon",
        "coordinates": [
          [
            [
              37.2608125,
              -2.6725238095238097
            ],
            [
              37.262375,
              -2.6725238095238097
            ],
            [
              37.262375,
              -2.670976190476191
            ],
            [
              37.2608125,
              -2.670976190476191
            ],
            [
              37.2608125,
              -2.6725238095238097
            ]
          ]
        ]
      }
    },
    {
      "type": "Feature",
      "properties": {
        "cellId": "s1-recoveryComparison-31-22",
        "window": "recoveryComparison",
        "observedAt": "2026-05-15T15:47:47.498591Z",
        "sceneId": "S1A_IW_GRDH_1SDV_20260515T154747_20260515T154812_064529_0820BC_1569_COG",
        "floodProbability": 0.606,
        "confidence": 0.627,
        "classification": "possible_flood",
        "vvMean": 138.56,
        "vhMean": 76.89,
        "method": "sentinel1-calibrated-low-backscatter-v1",
        "georeference": "copernicus-stac-bbox-linearized"
      },
      "geometry": {
        "type": "Polygon",
        "coordinates": [
          [
            [
              37.262375,
              -2.6725238095238097
            ],
            [
              37.2639375,
              -2.6725238095238097
            ],
            [
              37.2639375,
              -2.670976190476191
            ],
            [
              37.262375,
              -2.670976190476191
            ],
            [
              37.262375,
              -2.6725238095238097
            ]
          ]
        ]
      }
    },
    {
      "type": "Feature",
      "properties": {
        "cellId": "s1-recoveryComparison-31-23",
        "window": "recoveryComparison",
        "observedAt": "2026-05-15T15:47:47.498591Z",
        "sceneId": "S1A_IW_GRDH_1SDV_20260515T154747_20260515T154812_064529_0820BC_1569_COG",
        "floodProbability": 0.579,
        "confidence": 0.605,
        "classification": "possible_flood",
        "vvMean": 134.67,
        "vhMean": 74.56,
        "method": "sentinel1-calibrated-low-backscatter-v1",
        "georeference": "copernicus-stac-bbox-linearized"
      },
      "geometry": {
        "type": "Polygon",
        "coordinates": [
          [
            [
              37.2639375,
              -2.6725238095238097
            ],
            [
              37.2655,
              -2.6725238095238097
            ],
            [
              37.2655,
              -2.670976190476191
            ],
            [
              37.2639375,
              -2.670976190476191
            ],
            [
              37.2639375,
              -2.6725238095238097
            ]
          ]
        ]
      }
    },
    {
      "type": "Feature",
      "properties": {
        "cellId": "s1-recoveryComparison-31-24",
        "window": "recoveryComparison",
        "observedAt": "2026-05-15T15:47:47.498591Z",
        "sceneId": "S1A_IW_GRDH_1SDV_20260515T154747_20260515T154812_064529_0820BC_1569_COG",
        "floodProbability": 0.478,
        "confidence": 0.558,
        "classification": "possible_flood",
        "vvMean": 141,
        "vhMean": 87.56,
        "method": "sentinel1-calibrated-low-backscatter-v1",
        "georeference": "copernicus-stac-bbox-linearized"
      },
      "geometry": {
        "type": "Polygon",
        "coordinates": [
          [
            [
              37.2655,
              -2.6725238095238097
            ],
            [
              37.2670625,
              -2.6725238095238097
            ],
            [
              37.2670625,
              -2.670976190476191
            ],
            [
              37.2655,
              -2.670976190476191
            ],
            [
              37.2655,
              -2.6725238095238097
            ]
          ]
        ]
      }
    },
    {
      "type": "Feature",
      "properties": {
        "cellId": "s1-recoveryComparison-31-25",
        "window": "recoveryComparison",
        "observedAt": "2026-05-15T15:47:47.498591Z",
        "sceneId": "S1A_IW_GRDH_1SDV_20260515T154747_20260515T154812_064529_0820BC_1569_COG",
        "floodProbability": 0.453,
        "confidence": 0.579,
        "classification": "possible_flood",
        "vvMean": 152.22,
        "vhMean": 75.33,
        "method": "sentinel1-calibrated-low-backscatter-v1",
        "georeference": "copernicus-stac-bbox-linearized"
      },
      "geometry": {
        "type": "Polygon",
        "coordinates": [
          [
            [
              37.2670625,
              -2.6725238095238097
            ],
            [
              37.268625,
              -2.6725238095238097
            ],
            [
              37.268625,
              -2.670976190476191
            ],
            [
              37.2670625,
              -2.670976190476191
            ],
            [
              37.2670625,
              -2.6725238095238097
            ]
          ]
        ]
      }
    },
    {
      "type": "Feature",
      "properties": {
        "cellId": "s1-recoveryComparison-32-16",
        "window": "recoveryComparison",
        "observedAt": "2026-05-15T15:47:47.498591Z",
        "sceneId": "S1A_IW_GRDH_1SDV_20260515T154747_20260515T154812_064529_0820BC_1569_COG",
        "floodProbability": 0.478,
        "confidence": 0.558,
        "classification": "possible_flood",
        "vvMean": 151.78,
        "vhMean": 80.11,
        "method": "sentinel1-calibrated-low-backscatter-v1",
        "georeference": "copernicus-stac-bbox-linearized"
      },
      "geometry": {
        "type": "Polygon",
        "coordinates": [
          [
            [
              37.253,
              -2.6740714285714287
            ],
            [
              37.2545625,
              -2.6740714285714287
            ],
            [
              37.2545625,
              -2.6725238095238097
            ],
            [
              37.253,
              -2.6725238095238097
            ],
            [
              37.253,
              -2.6740714285714287
            ]
          ]
        ]
      }
    },
    {
      "type": "Feature",
      "properties": {
        "cellId": "s1-recoveryComparison-32-19",
        "window": "recoveryComparison",
        "observedAt": "2026-05-15T15:47:47.498591Z",
        "sceneId": "S1A_IW_GRDH_1SDV_20260515T154747_20260515T154812_064529_0820BC_1569_COG",
        "floodProbability": 0.516,
        "confidence": 0.553,
        "classification": "possible_flood",
        "vvMean": 141,
        "vhMean": 72.67,
        "method": "sentinel1-calibrated-low-backscatter-v1",
        "georeference": "copernicus-stac-bbox-linearized"
      },
      "geometry": {
        "type": "Polygon",
        "coordinates": [
          [
            [
              37.2576875,
              -2.6740714285714287
            ],
            [
              37.25925,
              -2.6740714285714287
            ],
            [
              37.25925,
              -2.6725238095238097
            ],
            [
              37.2576875,
              -2.6725238095238097
            ],
            [
              37.2576875,
              -2.6740714285714287
            ]
          ]
        ]
      }
    },
    {
      "type": "Feature",
      "properties": {
        "cellId": "s1-recoveryComparison-32-20",
        "window": "recoveryComparison",
        "observedAt": "2026-05-15T15:47:47.498591Z",
        "sceneId": "S1A_IW_GRDH_1SDV_20260515T154747_20260515T154812_064529_0820BC_1569_COG",
        "floodProbability": 0.765,
        "confidence": 0.758,
        "classification": "probable_flood",
        "vvMean": 99,
        "vhMean": 66.89,
        "method": "sentinel1-calibrated-low-backscatter-v1",
        "georeference": "copernicus-stac-bbox-linearized"
      },
      "geometry": {
        "type": "Polygon",
        "coordinates": [
          [
            [
              37.25925,
              -2.6740714285714287
            ],
            [
              37.2608125,
              -2.6740714285714287
            ],
            [
              37.2608125,
              -2.6725238095238097
            ],
            [
              37.25925,
              -2.6725238095238097
            ],
            [
              37.25925,
              -2.6740714285714287
            ]
          ]
        ]
      }
    },
    {
      "type": "Feature",
      "properties": {
        "cellId": "s1-recoveryComparison-32-21",
        "window": "recoveryComparison",
        "observedAt": "2026-05-15T15:47:47.498591Z",
        "sceneId": "S1A_IW_GRDH_1SDV_20260515T154747_20260515T154812_064529_0820BC_1569_COG",
        "floodProbability": 0.795,
        "confidence": 0.782,
        "classification": "probable_flood",
        "vvMean": 104.56,
        "vhMean": 62.44,
        "method": "sentinel1-calibrated-low-backscatter-v1",
        "georeference": "copernicus-stac-bbox-linearized"
      },
      "geometry": {
        "type": "Polygon",
        "coordinates": [
          [
            [
              37.2608125,
              -2.6740714285714287
            ],
            [
              37.262375,
              -2.6740714285714287
            ],
            [
              37.262375,
              -2.6725238095238097
            ],
            [
              37.2608125,
              -2.6725238095238097
            ],
            [
              37.2608125,
              -2.6740714285714287
            ]
          ]
        ]
      }
    },
    {
      "type": "Feature",
      "properties": {
        "cellId": "s1-recoveryComparison-32-22",
        "window": "recoveryComparison",
        "observedAt": "2026-05-15T15:47:47.498591Z",
        "sceneId": "S1A_IW_GRDH_1SDV_20260515T154747_20260515T154812_064529_0820BC_1569_COG",
        "floodProbability": 0.771,
        "confidence": 0.762,
        "classification": "probable_flood",
        "vvMean": 107,
        "vhMean": 69.56,
        "method": "sentinel1-calibrated-low-backscatter-v1",
        "georeference": "copernicus-stac-bbox-linearized"
      },
      "geometry": {
        "type": "Polygon",
        "coordinates": [
          [
            [
              37.262375,
              -2.6740714285714287
            ],
            [
              37.2639375,
              -2.6740714285714287
            ],
            [
              37.2639375,
              -2.6725238095238097
            ],
            [
              37.262375,
              -2.6725238095238097
            ],
            [
              37.262375,
              -2.6740714285714287
            ]
          ]
        ]
      }
    },
    {
      "type": "Feature",
      "properties": {
        "cellId": "s1-recoveryComparison-32-23",
        "window": "recoveryComparison",
        "observedAt": "2026-05-15T15:47:47.498591Z",
        "sceneId": "S1A_IW_GRDH_1SDV_20260515T154747_20260515T154812_064529_0820BC_1569_COG",
        "floodProbability": 0.589,
        "confidence": 0.613,
        "classification": "possible_flood",
        "vvMean": 148.78,
        "vhMean": 69.89,
        "method": "sentinel1-calibrated-low-backscatter-v1",
        "georeference": "copernicus-stac-bbox-linearized"
      },
      "geometry": {
        "type": "Polygon",
        "coordinates": [
          [
            [
              37.2639375,
              -2.6740714285714287
            ],
            [
              37.2655,
              -2.6740714285714287
            ],
            [
              37.2655,
              -2.6725238095238097
            ],
            [
              37.2639375,
              -2.6725238095238097
            ],
            [
              37.2639375,
              -2.6740714285714287
            ]
          ]
        ]
      }
    },
    {
      "type": "Feature",
      "properties": {
        "cellId": "s1-recoveryComparison-32-24",
        "window": "recoveryComparison",
        "observedAt": "2026-05-15T15:47:47.498591Z",
        "sceneId": "S1A_IW_GRDH_1SDV_20260515T154747_20260515T154812_064529_0820BC_1569_COG",
        "floodProbability": 0.517,
        "confidence": 0.554,
        "classification": "possible_flood",
        "vvMean": 138.78,
        "vhMean": 79.11,
        "method": "sentinel1-calibrated-low-backscatter-v1",
        "georeference": "copernicus-stac-bbox-linearized"
      },
      "geometry": {
        "type": "Polygon",
        "coordinates": [
          [
            [
              37.2655,
              -2.6740714285714287
            ],
            [
              37.2670625,
              -2.6740714285714287
            ],
            [
              37.2670625,
              -2.6725238095238097
            ],
            [
              37.2655,
              -2.6725238095238097
            ],
            [
              37.2655,
              -2.6740714285714287
            ]
          ]
        ]
      }
    },
    {
      "type": "Feature",
      "properties": {
        "cellId": "s1-recoveryComparison-33-16",
        "window": "recoveryComparison",
        "observedAt": "2026-05-15T15:47:47.498591Z",
        "sceneId": "S1A_IW_GRDH_1SDV_20260515T154747_20260515T154812_064529_0820BC_1569_COG",
        "floodProbability": 0.515,
        "confidence": 0.552,
        "classification": "possible_flood",
        "vvMean": 132.89,
        "vhMean": 78.33,
        "method": "sentinel1-calibrated-low-backscatter-v1",
        "georeference": "copernicus-stac-bbox-linearized"
      },
      "geometry": {
        "type": "Polygon",
        "coordinates": [
          [
            [
              37.253,
              -2.675619047619048
            ],
            [
              37.2545625,
              -2.675619047619048
            ],
            [
              37.2545625,
              -2.6740714285714287
            ],
            [
              37.253,
              -2.6740714285714287
            ],
            [
              37.253,
              -2.675619047619048
            ]
          ]
        ]
      }
    },
    {
      "type": "Feature",
      "properties": {
        "cellId": "s1-recoveryComparison-33-19",
        "window": "recoveryComparison",
        "observedAt": "2026-05-15T15:47:47.498591Z",
        "sceneId": "S1A_IW_GRDH_1SDV_20260515T154747_20260515T154812_064529_0820BC_1569_COG",
        "floodProbability": 0.547,
        "confidence": 0.579,
        "classification": "possible_flood",
        "vvMean": 132.67,
        "vhMean": 80.22,
        "method": "sentinel1-calibrated-low-backscatter-v1",
        "georeference": "copernicus-stac-bbox-linearized"
      },
      "geometry": {
        "type": "Polygon",
        "coordinates": [
          [
            [
              37.2576875,
              -2.675619047619048
            ],
            [
              37.25925,
              -2.675619047619048
            ],
            [
              37.25925,
              -2.6740714285714287
            ],
            [
              37.2576875,
              -2.6740714285714287
            ],
            [
              37.2576875,
              -2.675619047619048
            ]
          ]
        ]
      }
    },
    {
      "type": "Feature",
      "properties": {
        "cellId": "s1-recoveryComparison-33-20",
        "window": "recoveryComparison",
        "observedAt": "2026-05-15T15:47:47.498591Z",
        "sceneId": "S1A_IW_GRDH_1SDV_20260515T154747_20260515T154812_064529_0820BC_1569_COG",
        "floodProbability": 0.802,
        "confidence": 0.788,
        "classification": "probable_flood",
        "vvMean": 103.11,
        "vhMean": 64.89,
        "method": "sentinel1-calibrated-low-backscatter-v1",
        "georeference": "copernicus-stac-bbox-linearized"
      },
      "geometry": {
        "type": "Polygon",
        "coordinates": [
          [
            [
              37.25925,
              -2.675619047619048
            ],
            [
              37.2608125,
              -2.675619047619048
            ],
            [
              37.2608125,
              -2.6740714285714287
            ],
            [
              37.25925,
              -2.6740714285714287
            ],
            [
              37.25925,
              -2.675619047619048
            ]
          ]
        ]
      }
    },
    {
      "type": "Feature",
      "properties": {
        "cellId": "s1-recoveryComparison-33-21",
        "window": "recoveryComparison",
        "observedAt": "2026-05-15T15:47:47.498591Z",
        "sceneId": "S1A_IW_GRDH_1SDV_20260515T154747_20260515T154812_064529_0820BC_1569_COG",
        "floodProbability": 0.756,
        "confidence": 0.75,
        "classification": "probable_flood",
        "vvMean": 111.22,
        "vhMean": 75.67,
        "method": "sentinel1-calibrated-low-backscatter-v1",
        "georeference": "copernicus-stac-bbox-linearized"
      },
      "geometry": {
        "type": "Polygon",
        "coordinates": [
          [
            [
              37.2608125,
              -2.675619047619048
            ],
            [
              37.262375,
              -2.675619047619048
            ],
            [
              37.262375,
              -2.6740714285714287
            ],
            [
              37.2608125,
              -2.6740714285714287
            ],
            [
              37.2608125,
              -2.675619047619048
            ]
          ]
        ]
      }
    },
    {
      "type": "Feature",
      "properties": {
        "cellId": "s1-recoveryComparison-33-22",
        "window": "recoveryComparison",
        "observedAt": "2026-05-15T15:47:47.498591Z",
        "sceneId": "S1A_IW_GRDH_1SDV_20260515T154747_20260515T154812_064529_0820BC_1569_COG",
        "floodProbability": 0.683,
        "confidence": 0.69,
        "classification": "probable_flood",
        "vvMean": 125.44,
        "vhMean": 65.67,
        "method": "sentinel1-calibrated-low-backscatter-v1",
        "georeference": "copernicus-stac-bbox-linearized"
      },
      "geometry": {
        "type": "Polygon",
        "coordinates": [
          [
            [
              37.262375,
              -2.675619047619048
            ],
            [
              37.2639375,
              -2.675619047619048
            ],
            [
              37.2639375,
              -2.6740714285714287
            ],
            [
              37.262375,
              -2.6740714285714287
            ],
            [
              37.262375,
              -2.675619047619048
            ]
          ]
        ]
      }
    },
    {
      "type": "Feature",
      "properties": {
        "cellId": "s1-recoveryComparison-34-20",
        "window": "recoveryComparison",
        "observedAt": "2026-05-15T15:47:47.498591Z",
        "sceneId": "S1A_IW_GRDH_1SDV_20260515T154747_20260515T154812_064529_0820BC_1569_COG",
        "floodProbability": 0.669,
        "confidence": 0.679,
        "classification": "probable_flood",
        "vvMean": 132.67,
        "vhMean": 64.56,
        "method": "sentinel1-calibrated-low-backscatter-v1",
        "georeference": "copernicus-stac-bbox-linearized"
      },
      "geometry": {
        "type": "Polygon",
        "coordinates": [
          [
            [
              37.25925,
              -2.677166666666667
            ],
            [
              37.2608125,
              -2.677166666666667
            ],
            [
              37.2608125,
              -2.675619047619048
            ],
            [
              37.25925,
              -2.675619047619048
            ],
            [
              37.25925,
              -2.677166666666667
            ]
          ]
        ]
      }
    },
    {
      "type": "Feature",
      "properties": {
        "cellId": "s1-recoveryComparison-34-21",
        "window": "recoveryComparison",
        "observedAt": "2026-05-15T15:47:47.498591Z",
        "sceneId": "S1A_IW_GRDH_1SDV_20260515T154747_20260515T154812_064529_0820BC_1569_COG",
        "floodProbability": 0.67,
        "confidence": 0.679,
        "classification": "probable_flood",
        "vvMean": 117.44,
        "vhMean": 72.67,
        "method": "sentinel1-calibrated-low-backscatter-v1",
        "georeference": "copernicus-stac-bbox-linearized"
      },
      "geometry": {
        "type": "Polygon",
        "coordinates": [
          [
            [
              37.2608125,
              -2.677166666666667
            ],
            [
              37.262375,
              -2.677166666666667
            ],
            [
              37.262375,
              -2.675619047619048
            ],
            [
              37.2608125,
              -2.675619047619048
            ],
            [
              37.2608125,
              -2.677166666666667
            ]
          ]
        ]
      }
    },
    {
      "type": "Feature",
      "properties": {
        "cellId": "s1-recoveryComparison-35-21",
        "window": "recoveryComparison",
        "observedAt": "2026-05-15T15:47:47.498591Z",
        "sceneId": "S1A_IW_GRDH_1SDV_20260515T154747_20260515T154812_064529_0820BC_1569_COG",
        "floodProbability": 0.454,
        "confidence": 0.578,
        "classification": "possible_flood",
        "vvMean": 146.11,
        "vhMean": 88.11,
        "method": "sentinel1-calibrated-low-backscatter-v1",
        "georeference": "copernicus-stac-bbox-linearized"
      },
      "geometry": {
        "type": "Polygon",
        "coordinates": [
          [
            [
              37.2608125,
              -2.678714285714286
            ],
            [
              37.262375,
              -2.678714285714286
            ],
            [
              37.262375,
              -2.677166666666667
            ],
            [
              37.2608125,
              -2.677166666666667
            ],
            [
              37.2608125,
              -2.678714285714286
            ]
          ]
        ]
      }
    },
    {
      "type": "Feature",
      "properties": {
        "cellId": "s1-recoveryComparison-37-17",
        "window": "recoveryComparison",
        "observedAt": "2026-05-15T15:47:47.498591Z",
        "sceneId": "S1A_IW_GRDH_1SDV_20260515T154747_20260515T154812_064529_0820BC_1569_COG",
        "floodProbability": 0.452,
        "confidence": 0.58,
        "classification": "possible_flood",
        "vvMean": 146.78,
        "vhMean": 84.78,
        "method": "sentinel1-calibrated-low-backscatter-v1",
        "georeference": "copernicus-stac-bbox-linearized"
      },
      "geometry": {
        "type": "Polygon",
        "coordinates": [
          [
            [
              37.2545625,
              -2.681809523809524
            ],
            [
              37.256125,
              -2.681809523809524
            ],
            [
              37.256125,
              -2.6802619047619047
            ],
            [
              37.2545625,
              -2.6802619047619047
            ],
            [
              37.2545625,
              -2.681809523809524
            ]
          ]
        ]
      }
    },
    {
      "type": "Feature",
      "properties": {
        "cellId": "s1-recoveryComparison-37-18",
        "window": "recoveryComparison",
        "observedAt": "2026-05-15T15:47:47.498591Z",
        "sceneId": "S1A_IW_GRDH_1SDV_20260515T154747_20260515T154812_064529_0820BC_1569_COG",
        "floodProbability": 0.501,
        "confidence": 0.541,
        "classification": "possible_flood",
        "vvMean": 135.44,
        "vhMean": 73.11,
        "method": "sentinel1-calibrated-low-backscatter-v1",
        "georeference": "copernicus-stac-bbox-linearized"
      },
      "geometry": {
        "type": "Polygon",
        "coordinates": [
          [
            [
              37.256125,
              -2.681809523809524
            ],
            [
              37.2576875,
              -2.681809523809524
            ],
            [
              37.2576875,
              -2.6802619047619047
            ],
            [
              37.256125,
              -2.6802619047619047
            ],
            [
              37.256125,
              -2.681809523809524
            ]
          ]
        ]
      }
    },
    {
      "type": "Feature",
      "properties": {
        "cellId": "s1-recoveryComparison-38-0",
        "window": "recoveryComparison",
        "observedAt": "2026-05-15T15:47:47.498591Z",
        "sceneId": "S1A_IW_GRDH_1SDV_20260515T154747_20260515T154812_064529_0820BC_1569_COG",
        "floodProbability": 0.526,
        "confidence": 0.562,
        "classification": "possible_flood",
        "vvMean": 121,
        "vhMean": 83.89,
        "method": "sentinel1-calibrated-low-backscatter-v1",
        "georeference": "copernicus-stac-bbox-linearized"
      },
      "geometry": {
        "type": "Polygon",
        "coordinates": [
          [
            [
              37.228,
              -2.683357142857143
            ],
            [
              37.2295625,
              -2.683357142857143
            ],
            [
              37.2295625,
              -2.681809523809524
            ],
            [
              37.228,
              -2.681809523809524
            ],
            [
              37.228,
              -2.683357142857143
            ]
          ]
        ]
      }
    },
    {
      "type": "Feature",
      "properties": {
        "cellId": "s1-recoveryComparison-38-29",
        "window": "recoveryComparison",
        "observedAt": "2026-05-15T15:47:47.498591Z",
        "sceneId": "S1A_IW_GRDH_1SDV_20260515T154747_20260515T154812_064529_0820BC_1569_COG",
        "floodProbability": 0.469,
        "confidence": 0.566,
        "classification": "possible_flood",
        "vvMean": 138.67,
        "vhMean": 87.78,
        "method": "sentinel1-calibrated-low-backscatter-v1",
        "georeference": "copernicus-stac-bbox-linearized"
      },
      "geometry": {
        "type": "Polygon",
        "coordinates": [
          [
            [
              37.273312499999996,
              -2.683357142857143
            ],
            [
              37.274875,
              -2.683357142857143
            ],
            [
              37.274875,
              -2.681809523809524
            ],
            [
              37.273312499999996,
              -2.681809523809524
            ],
            [
              37.273312499999996,
              -2.683357142857143
            ]
          ]
        ]
      }
    },
    {
      "type": "Feature",
      "properties": {
        "cellId": "s1-recoveryComparison-38-30",
        "window": "recoveryComparison",
        "observedAt": "2026-05-15T15:47:47.498591Z",
        "sceneId": "S1A_IW_GRDH_1SDV_20260515T154747_20260515T154812_064529_0820BC_1569_COG",
        "floodProbability": 0.473,
        "confidence": 0.562,
        "classification": "possible_flood",
        "vvMean": 138.89,
        "vhMean": 79,
        "method": "sentinel1-calibrated-low-backscatter-v1",
        "georeference": "copernicus-stac-bbox-linearized"
      },
      "geometry": {
        "type": "Polygon",
        "coordinates": [
          [
            [
              37.274875,
              -2.683357142857143
            ],
            [
              37.2764375,
              -2.683357142857143
            ],
            [
              37.2764375,
              -2.681809523809524
            ],
            [
              37.274875,
              -2.681809523809524
            ],
            [
              37.274875,
              -2.683357142857143
            ]
          ]
        ]
      }
    },
    {
      "type": "Feature",
      "properties": {
        "cellId": "s1-recoveryComparison-38-31",
        "window": "recoveryComparison",
        "observedAt": "2026-05-15T15:47:47.498591Z",
        "sceneId": "S1A_IW_GRDH_1SDV_20260515T154747_20260515T154812_064529_0820BC_1569_COG",
        "floodProbability": 0.545,
        "confidence": 0.577,
        "classification": "possible_flood",
        "vvMean": 139,
        "vhMean": 83,
        "method": "sentinel1-calibrated-low-backscatter-v1",
        "georeference": "copernicus-stac-bbox-linearized"
      },
      "geometry": {
        "type": "Polygon",
        "coordinates": [
          [
            [
              37.2764375,
              -2.683357142857143
            ],
            [
              37.278,
              -2.683357142857143
            ],
            [
              37.278,
              -2.681809523809524
            ],
            [
              37.2764375,
              -2.681809523809524
            ],
            [
              37.2764375,
              -2.683357142857143
            ]
          ]
        ]
      }
    },
    {
      "type": "Feature",
      "properties": {
        "cellId": "s1-recoveryComparison-39-0",
        "window": "recoveryComparison",
        "observedAt": "2026-05-15T15:47:47.498591Z",
        "sceneId": "S1A_IW_GRDH_1SDV_20260515T154747_20260515T154812_064529_0820BC_1569_COG",
        "floodProbability": 0.673,
        "confidence": 0.682,
        "classification": "probable_flood",
        "vvMean": 117.33,
        "vhMean": 69.67,
        "method": "sentinel1-calibrated-low-backscatter-v1",
        "georeference": "copernicus-stac-bbox-linearized"
      },
      "geometry": {
        "type": "Polygon",
        "coordinates": [
          [
            [
              37.228,
              -2.684904761904762
            ],
            [
              37.2295625,
              -2.684904761904762
            ],
            [
              37.2295625,
              -2.683357142857143
            ],
            [
              37.228,
              -2.683357142857143
            ],
            [
              37.228,
              -2.684904761904762
            ]
          ]
        ]
      }
    },
    {
      "type": "Feature",
      "properties": {
        "cellId": "s1-recoveryComparison-39-30",
        "window": "recoveryComparison",
        "observedAt": "2026-05-15T15:47:47.498591Z",
        "sceneId": "S1A_IW_GRDH_1SDV_20260515T154747_20260515T154812_064529_0820BC_1569_COG",
        "floodProbability": 0.465,
        "confidence": 0.569,
        "classification": "possible_flood",
        "vvMean": 129.44,
        "vhMean": 98.33,
        "method": "sentinel1-calibrated-low-backscatter-v1",
        "georeference": "copernicus-stac-bbox-linearized"
      },
      "geometry": {
        "type": "Polygon",
        "coordinates": [
          [
            [
              37.274875,
              -2.684904761904762
            ],
            [
              37.2764375,
              -2.684904761904762
            ],
            [
              37.2764375,
              -2.683357142857143
            ],
            [
              37.274875,
              -2.683357142857143
            ],
            [
              37.274875,
              -2.684904761904762
            ]
          ]
        ]
      }
    },
    {
      "type": "Feature",
      "properties": {
        "cellId": "s1-recoveryComparison-39-31",
        "window": "recoveryComparison",
        "observedAt": "2026-05-15T15:47:47.498591Z",
        "sceneId": "S1A_IW_GRDH_1SDV_20260515T154747_20260515T154812_064529_0820BC_1569_COG",
        "floodProbability": 0.513,
        "confidence": 0.551,
        "classification": "possible_flood",
        "vvMean": 146.78,
        "vhMean": 86.33,
        "method": "sentinel1-calibrated-low-backscatter-v1",
        "georeference": "copernicus-stac-bbox-linearized"
      },
      "geometry": {
        "type": "Polygon",
        "coordinates": [
          [
            [
              37.2764375,
              -2.684904761904762
            ],
            [
              37.278,
              -2.684904761904762
            ],
            [
              37.278,
              -2.683357142857143
            ],
            [
              37.2764375,
              -2.683357142857143
            ],
            [
              37.2764375,
              -2.684904761904762
            ]
          ]
        ]
      }
    },
    {
      "type": "Feature",
      "properties": {
        "cellId": "s1-recoveryComparison-40-0",
        "window": "recoveryComparison",
        "observedAt": "2026-05-15T15:47:47.498591Z",
        "sceneId": "S1A_IW_GRDH_1SDV_20260515T154747_20260515T154812_064529_0820BC_1569_COG",
        "floodProbability": 0.486,
        "confidence": 0.551,
        "classification": "possible_flood",
        "vvMean": 153.44,
        "vhMean": 87.33,
        "method": "sentinel1-calibrated-low-backscatter-v1",
        "georeference": "copernicus-stac-bbox-linearized"
      },
      "geometry": {
        "type": "Polygon",
        "coordinates": [
          [
            [
              37.228,
              -2.6864523809523813
            ],
            [
              37.2295625,
              -2.6864523809523813
            ],
            [
              37.2295625,
              -2.684904761904762
            ],
            [
              37.228,
              -2.684904761904762
            ],
            [
              37.228,
              -2.6864523809523813
            ]
          ]
        ]
      }
    },
    {
      "type": "Feature",
      "properties": {
        "cellId": "s1-recoveryComparison-40-19",
        "window": "recoveryComparison",
        "observedAt": "2026-05-15T15:47:47.498591Z",
        "sceneId": "S1A_IW_GRDH_1SDV_20260515T154747_20260515T154812_064529_0820BC_1569_COG",
        "floodProbability": 0.453,
        "confidence": 0.578,
        "classification": "possible_flood",
        "vvMean": 132.78,
        "vhMean": 86.11,
        "method": "sentinel1-calibrated-low-backscatter-v1",
        "georeference": "copernicus-stac-bbox-linearized"
      },
      "geometry": {
        "type": "Polygon",
        "coordinates": [
          [
            [
              37.2576875,
              -2.6864523809523813
            ],
            [
              37.25925,
              -2.6864523809523813
            ],
            [
              37.25925,
              -2.684904761904762
            ],
            [
              37.2576875,
              -2.684904761904762
            ],
            [
              37.2576875,
              -2.6864523809523813
            ]
          ]
        ]
      }
    },
    {
      "type": "Feature",
      "properties": {
        "cellId": "s1-recoveryComparison-40-37",
        "window": "recoveryComparison",
        "observedAt": "2026-05-15T15:47:47.498591Z",
        "sceneId": "S1A_IW_GRDH_1SDV_20260515T154747_20260515T154812_064529_0820BC_1569_COG",
        "floodProbability": 0.515,
        "confidence": 0.552,
        "classification": "possible_flood",
        "vvMean": 126.22,
        "vhMean": 78.22,
        "method": "sentinel1-calibrated-low-backscatter-v1",
        "georeference": "copernicus-stac-bbox-linearized"
      },
      "geometry": {
        "type": "Polygon",
        "coordinates": [
          [
            [
              37.2858125,
              -2.6864523809523813
            ],
            [
              37.287375,
              -2.6864523809523813
            ],
            [
              37.287375,
              -2.684904761904762
            ],
            [
              37.2858125,
              -2.684904761904762
            ],
            [
              37.2858125,
              -2.6864523809523813
            ]
          ]
        ]
      }
    }
  ]
}
