{
  "type": "FeatureCollection",
  "features": [
    {
      "type": "Feature",
      "properties": {
        "cellId": "amboseli-30m-v1:central-marsh",
        "label": "Central Marsh",
        "stateAtIssue": "wet",
        "observedAtValid": "wet",
        "forecast72hRainMm": 74,
        "previous30dRainMm": 168,
        "historicalFloodFrequency": 0.82,
        "distanceToCurrentFloodM": 0,
        "floodedNeighborFraction": 0.9,
        "handMeters": 0.4,
        "observationAgeDays": 0,
        "daysFloodedMin": 2,
        "historicalResidenceMedianDays": 18
      },
      "geometry": {
        "type": "Polygon",
        "coordinates": [
          [
            [
              37.2735,
              -2.664
            ],
            [
              37.27975,
              -2.66279423
            ],
            [
              37.28432532,
              -2.6595
            ],
            [
              37.286,
              -2.655
            ],
            [
              37.28432532,
              -2.6505
            ],
            [
              37.27975,
              -2.64720577
            ],
            [
              37.2735,
              -2.646
            ],
            [
              37.26725,
              -2.64720577
            ],
            [
              37.26267468,
              -2.6505
            ],
            [
              37.261,
              -2.655
            ],
            [
              37.26267468,
              -2.6595
            ],
            [
              37.26725,
              -2.66279423
            ],
            [
              37.2735,
              -2.664
            ]
          ]
        ]
      }
    },
    {
      "type": "Feature",
      "properties": {
        "cellId": "amboseli-30m-v1:north-causeway",
        "label": "Northern Causeway Wetland",
        "stateAtIssue": "wet",
        "observedAtValid": "wet",
        "forecast72hRainMm": 66,
        "previous30dRainMm": 154,
        "historicalFloodFrequency": 0.76,
        "distanceToCurrentFloodM": 0,
        "floodedNeighborFraction": 0.84,
        "handMeters": 0.5,
        "observationAgeDays": 0,
        "daysFloodedMin": 3,
        "historicalResidenceMedianDays": 21
      },
      "geometry": {
        "type": "Polygon",
        "coordinates": [
          [
            [
              37.2715,
              -2.638
            ],
            [
              37.27625,
              -2.63686122
            ],
            [
              37.27972724,
              -2.63375
            ],
            [
              37.281,
              -2.6295
            ],
            [
              37.27972724,
              -2.62525
            ],
            [
              37.27625,
              -2.62213878
            ],
            [
              37.2715,
              -2.621
            ],
            [
              37.26675,
              -2.62213878
            ],
            [
              37.26327276,
              -2.62525
            ],
            [
              37.262,
              -2.6295
            ],
            [
              37.26327276,
              -2.63375
            ],
            [
              37.26675,
              -2.63686122
            ],
            [
              37.2715,
              -2.638
            ]
          ]
        ]
      }
    },
    {
      "type": "Feature",
      "properties": {
        "cellId": "amboseli-30m-v1:eastern-access",
        "label": "Eastern Access Margin",
        "stateAtIssue": "dry",
        "observedAtValid": "wet",
        "forecast72hRainMm": 72,
        "previous30dRainMm": 151,
        "historicalFloodFrequency": 0.58,
        "distanceToCurrentFloodM": 160,
        "floodedNeighborFraction": 0.68,
        "handMeters": 0.8,
        "observationAgeDays": 0,
        "daysFloodedMin": 0,
        "historicalResidenceMedianDays": 12
      },
      "geometry": {
        "type": "Polygon",
        "coordinates": [
          [
            [
              37.2885,
              -2.662
            ],
            [
              37.29225,
              -2.66119615
            ],
            [
              37.29499519,
              -2.659
            ],
            [
              37.296,
              -2.656
            ],
            [
              37.29499519,
              -2.653
            ],
            [
              37.29225,
              -2.65080385
            ],
            [
              37.2885,
              -2.65
            ],
            [
              37.28475,
              -2.65080385
            ],
            [
              37.28200481,
              -2.653
            ],
            [
              37.281,
              -2.656
            ],
            [
              37.28200481,
              -2.659
            ],
            [
              37.28475,
              -2.66119615
            ],
            [
              37.2885,
              -2.662
            ]
          ]
        ]
      }
    },
    {
      "type": "Feature",
      "properties": {
        "cellId": "amboseli-30m-v1:southern-bypass",
        "label": "Southern Bypass Margin",
        "stateAtIssue": "dry",
        "observedAtValid": "dry",
        "forecast72hRainMm": 58,
        "previous30dRainMm": 126,
        "historicalFloodFrequency": 0.34,
        "distanceToCurrentFloodM": 360,
        "floodedNeighborFraction": 0.32,
        "handMeters": 1.7,
        "observationAgeDays": 0,
        "daysFloodedMin": 0,
        "historicalResidenceMedianDays": 7
      },
      "geometry": {
        "type": "Polygon",
        "coordinates": [
          [
            [
              37.285,
              -2.681
            ],
            [
              37.29,
              -2.67986122
            ],
            [
              37.29366025,
              -2.67675
            ],
            [
              37.295,
              -2.6725
            ],
            [
              37.29366025,
              -2.66825
            ],
            [
              37.29,
              -2.66513878
            ],
            [
              37.285,
              -2.664
            ],
            [
              37.28,
              -2.66513878
            ],
            [
              37.27633975,
              -2.66825
            ],
            [
              37.275,
              -2.6725
            ],
            [
              37.27633975,
              -2.67675
            ],
            [
              37.28,
              -2.67986122
            ],
            [
              37.285,
              -2.681
            ]
          ]
        ]
      }
    },
    {
      "type": "Feature",
      "properties": {
        "cellId": "amboseli-30m-v1:dry-ridge",
        "label": "Dry Ridge",
        "stateAtIssue": "dry",
        "observedAtValid": "dry",
        "forecast72hRainMm": 44,
        "previous30dRainMm": 101,
        "historicalFloodFrequency": 0.12,
        "distanceToCurrentFloodM": 820,
        "floodedNeighborFraction": 0.08,
        "handMeters": 3.6,
        "observationAgeDays": 0,
        "daysFloodedMin": 0,
        "historicalResidenceMedianDays": 3
      },
      "geometry": {
        "type": "Polygon",
        "coordinates": [
          [
            [
              37.2605,
              -2.672
            ],
            [
              37.26675,
              -2.67106218
            ],
            [
              37.27132532,
              -2.6685
            ],
            [
              37.273,
              -2.665
            ],
            [
              37.27132532,
              -2.6615
            ],
            [
              37.26675,
              -2.65893782
            ],
            [
              37.2605,
              -2.658
            ],
            [
              37.25425,
              -2.65893782
            ],
            [
              37.24967468,
              -2.6615
            ],
            [
              37.248,
              -2.665
            ],
            [
              37.24967468,
              -2.6685
            ],
            [
              37.25425,
              -2.67106218
            ],
            [
              37.2605,
              -2.672
            ]
          ]
        ]
      }
    },
    {
      "type": "Feature",
      "properties": {
        "cellId": "amboseli-30m-v1:western-gate",
        "label": "Western Gate Road",
        "stateAtIssue": "dry",
        "observedAtValid": "dry",
        "forecast72hRainMm": 38,
        "previous30dRainMm": 90,
        "historicalFloodFrequency": 0.1,
        "distanceToCurrentFloodM": 1100,
        "floodedNeighborFraction": 0.04,
        "handMeters": 2.9,
        "observationAgeDays": 0,
        "daysFloodedMin": 0,
        "historicalResidenceMedianDays": 2
      },
      "geometry": {
        "type": "Polygon",
        "coordinates": [
          [
            [
              37.2345,
              -2.659
            ],
            [
              37.24125,
              -2.65806218
            ],
            [
              37.24619134,
              -2.6555
            ],
            [
              37.248,
              -2.652
            ],
            [
              37.24619134,
              -2.6485
            ],
            [
              37.24125,
              -2.64593782
            ],
            [
              37.2345,
              -2.645
            ],
            [
              37.22775,
              -2.64593782
            ],
            [
              37.22280866,
              -2.6485
            ],
            [
              37.221,
              -2.652
            ],
            [
              37.22280866,
              -2.6555
            ],
            [
              37.22775,
              -2.65806218
            ],
            [
              37.2345,
              -2.659
            ]
          ]
        ]
      }
    },
    {
      "type": "Feature",
      "properties": {
        "cellId": "amboseli-30m-v1:observation-hill",
        "label": "Observation Hill",
        "stateAtIssue": "dry",
        "observedAtValid": "dry",
        "forecast72hRainMm": 35,
        "previous30dRainMm": 84,
        "historicalFloodFrequency": 0.06,
        "distanceToCurrentFloodM": 1360,
        "floodedNeighborFraction": 0.02,
        "handMeters": 5.2,
        "observationAgeDays": 0,
        "daysFloodedMin": 0,
        "historicalResidenceMedianDays": 1
      },
      "geometry": {
        "type": "Polygon",
        "coordinates": [
          [
            [
              37.2375,
              -2.683
            ],
            [
              37.24325,
              -2.68199519
            ],
            [
              37.24745929,
              -2.67925
            ],
            [
              37.249,
              -2.6755
            ],
            [
              37.24745929,
              -2.67175
            ],
            [
              37.24325,
              -2.66900481
            ],
            [
              37.2375,
              -2.668
            ],
            [
              37.23175,
              -2.66900481
            ],
            [
              37.22754071,
              -2.67175
            ],
            [
              37.226,
              -2.6755
            ],
            [
              37.22754071,
              -2.67925
            ],
            [
              37.23175,
              -2.68199519
            ],
            [
              37.2375,
              -2.683
            ]
          ]
        ]
      }
    },
    {
      "type": "Feature",
      "properties": {
        "cellId": "amboseli-30m-v1:northern-loop",
        "label": "Northern Loop Margin",
        "stateAtIssue": "dry",
        "observedAtValid": "wet",
        "forecast72hRainMm": 62,
        "previous30dRainMm": 142,
        "historicalFloodFrequency": 0.46,
        "distanceToCurrentFloodM": 230,
        "floodedNeighborFraction": 0.5,
        "handMeters": 1.1,
        "observationAgeDays": 0,
        "daysFloodedMin": 0,
        "historicalResidenceMedianDays": 10
      },
      "geometry": {
        "type": "Polygon",
        "coordinates": [
          [
            [
              37.2675,
              -2.646
            ],
            [
              37.27275,
              -2.64506218
            ],
            [
              37.27659327,
              -2.6425
            ],
            [
              37.278,
              -2.639
            ],
            [
              37.27659327,
              -2.6355
            ],
            [
              37.27275,
              -2.63293782
            ],
            [
              37.2675,
              -2.632
            ],
            [
              37.26225,
              -2.63293782
            ],
            [
              37.25840673,
              -2.6355
            ],
            [
              37.257,
              -2.639
            ],
            [
              37.25840673,
              -2.6425
            ],
            [
              37.26225,
              -2.64506218
            ],
            [
              37.2675,
              -2.646
            ]
          ]
        ]
      }
    }
  ]
}
